H1 CPF  1  HTS 2022 12 30 12  8641 larets           NONE
H2  0304206 5557    27944 2022 12 30  0  0  0 2023 01 04  0  0  0   180 1 1  0 0 0
H5  0.0560 
H9 
10 0 59945  46440.00000  0   -6291341.711   -2636254.489   -1814308.506
10 0 59945  46620.00000  0   -6599070.398   -2449021.484    -494877.963
10 0 59945  46800.00000  0   -6659623.416   -2167507.002     842749.916
10 0 59945  46980.00000  0   -6468319.866   -1808473.566    2149339.521
10 0 59945  47160.00000  0   -6030289.099   -1391565.799    3376753.649
10 0 59945  47340.00000  0   -5360338.535    -938318.266    4479797.291
10 0 59945  47520.00000  0   -4482403.285    -471095.384    5417932.640
10 0 59945  47700.00000  0   -3428618.877     -12024.129    6156782.786
10 0 59945  47880.00000  0   -2238071.297     418028.002    6669380.760
10 0 59945  48060.00000  0    -955280.013     800379.714    6937120.076
10 0 59945  48240.00000  0     371511.946    1119329.738    6950386.481
10 0 59945  48420.00000  0    1692172.725    1362791.348    6708865.449
10 0 59945  48600.00000  0    2956582.170    1522746.240    6221528.327
10 0 59945  48780.00000  0    4116538.577    1595502.736    5506300.610
10 0 59945  48960.00000  0    5127608.764    1581751.751    4589417.448
10 0 59945  49140.00000  0    5950855.716    1486422.519    3504485.408
10 0 59945  49320.00000  0    6554380.250    1318343.374    2291261.356
10 0 59945  49500.00000  0    6914595.837    1089719.851     994190.706
10 0 59945  49680.00000  0    7017181.507     815457.390    -339242.413
10 0 59945  49860.00000  0    6857660.444     512361.576   -1660288.184
10 0 59945  50040.00000  0    6441571.023     198256.260   -2920748.820
10 0 59945  50220.00000  0    5784229.675    -108933.603   -4074756.728
10 0 59945  50400.00000  0    4910104.127    -392085.016   -5080441.935
10 0 59945  50580.00000  0    3851834.720    -635720.032   -5901418.607
10 0 59945  50760.00000  0    2648966.849    -826751.891   -6508045.821
10 0 59945  50940.00000  0    1346449.111    -955104.406   -6878432.917
10 0 59945  51120.00000  0      -7037.859   -1014180.028   -6999168.531
10 0 59945  51300.00000  0   -1360866.919   -1001162.841   -6865770.532
10 0 59945  51480.00000  0   -2664312.660    -917145.966   -6482850.881
10 0 59945  51660.00000  0   -3868411.527    -767079.093   -5863989.783
10 0 59945  51840.00000  0   -4927781.434    -559537.206   -5031322.905
10 0 59945  52020.00000  0   -5802353.825    -306315.148   -4014833.810
10 0 59945  52200.00000  0   -6458949.299     -21860.127   -2851352.564
10 0 59945  52380.00000  0   -6872627.543     277440.286   -1583272.931
10 0 59945  52560.00000  0   -7027737.632     574085.365    -257020.780
10 0 59945  52740.00000  0   -6918598.058     850363.137    1078678.407
10 0 59945  52920.00000  0   -6549756.113    1089279.301    2374647.740
10 0 59945  53100.00000  0   -5935814.421    1275462.511    3583141.953
10 0 59945  53280.00000  0   -5100820.916    1395994.920    4659675.893
10 0 59945  53460.00000  0   -4077260.448    1441122.226    5564704.319
10 0 59945  53640.00000  0   -2904714.605    1404807.400    6265084.326
10 0 59945  53820.00000  0   -1628258.958    1285103.935    6735275.306
10 0 59945  54000.00000  0    -296668.012    1084333.181    6958234.280
10 0 59945  54180.00000  0    1039483.154     809059.172    6925986.007
10 0 59945  54360.00000  0    2329750.413     469865.248    6639873.662
10 0 59945  54540.00000  0    3525726.913      80941.478    6110490.169
10 0 59945  54720.00000  0    4582865.991    -340504.263    5357292.253
10 0 59945  54900.00000  0    5462157.574    -774991.143    4407902.123
10 0 59945  55080.00000  0    6131598.176   -1201637.399    3297114.499
10 0 59945  55260.00000  0    6567396.872   -1599123.929    2065631.579
10 0 59945  55440.00000  0    6754858.257   -1946704.191     758563.626
10 0 59945  55620.00000  0    6688899.020   -2225213.097    -576246.941
10 0 59945  55800.00000  0    6374169.214   -2418023.226   -1890013.488
10 0 59945  55980.00000  0    5824770.386   -2511896.429   -3134822.875
10 0 59945  56160.00000  0    5063590.805   -2497688.136   -4265399.532
10 0 59945  56340.00000  0    4121304.206   -2370872.335   -5240742.743
10 0 59945  56520.00000  0    3035084.939   -2131866.421   -6025578.890
10 0 59945  56700.00000  0    1847108.887   -1786143.396   -6591576.424
10 0 59945  56880.00000  0     602912.935   -1344131.384   -6918305.133
10 0 59945  57060.00000  0    -650332.616    -820905.519   -6993917.776
10 0 59945  57240.00000  0   -1865574.542    -235686.171   -6815547.415
10 0 59945  57420.00000  0   -2997602.737     388845.619   -6389419.936
10 0 59945  57600.00000  0   -4004701.728    1027397.909   -5730676.991
10 0 59945  57780.00000  0   -4850186.187    1653059.794   -4862911.987
10 0 59945  57960.00000  0   -5503774.557    2238409.503   -3817410.448
10 0 59945  58140.00000  0   -5942740.797    2756700.386   -2632094.128
10 0 59945  58320.00000  0   -6152788.572    3183069.665   -1350191.206
10 0 59945  58500.00000  0   -6128598.502    3495715.888     -18666.102
10 0 59945  58680.00000  0   -5874004.984    3676980.523    1313536.600
10 0 59945  58860.00000  0   -5401778.178    3714268.722    2597357.745
10 0 59945  59040.00000  0   -4733016.781    3600756.548    3785503.056
10 0 59945  59220.00000  0   -3896189.324    3335844.628    4834248.845
10 0 59945  59400.00000  0   -2925876.415    2925334.241    5705088.978
10 0 59945  59580.00000  0   -1861285.266    2381324.202    6366156.714
10 0 59945  59760.00000  0    -744610.215    1721833.748    6793369.576
10 0 59945  59940.00000  0     380676.638     970173.735    6971262.542
10 0 59945  60120.00000  0    1471531.987     154097.141    6893504.649
10 0 59945  60300.00000  0    2486990.792    -695239.459    6563094.394
10 0 59945  60480.00000  0    3389704.351   -1544471.322    5992235.747
10 0 59945  60660.00000  0    4147321.174   -2359338.326    5201896.382
10 0 59945  60840.00000  0    4733661.791   -3106069.301    4221054.940
10 0 59945  61020.00000  0    5129645.655   -3752787.406    3085658.715
10 0 59945  61200.00000  0    5323934.139   -4270877.674    1837312.200
10 0 59945  61380.00000  0    5313252.665   -4636249.539     521739.665
10 0 59945  61560.00000  0    5102377.721   -4830434.508    -812915.540
10 0 59945  61740.00000  0    4703790.596   -4841462.090   -2117887.690
10 0 59945  61920.00000  0    4137014.361   -4664466.877   -3345602.685
10 0 59945  62100.00000  0    3427672.366   -4301999.633   -4451426.604
10 0 59945  62280.00000  0    2606322.480   -3764032.176   -5395277.008
10 0 59945  62460.00000  0    1707128.595   -3067662.747   -6143034.083
10 0 59945  62640.00000  0     766440.742   -2236548.680   -6667710.793
10 0 59945  62820.00000  0    -178660.343   -1300090.517   -6950365.364
10 0 59945  63000.00000  0   -1091798.486    -292395.255   -6980730.963
10 0 59945  63180.00000  0   -1938667.837     748939.998   -6757561.141
10 0 59945  63360.00000  0   -2688294.876    1784191.752   -6288690.365
10 0 59945  63540.00000  0   -3314158.452    2772987.472   -5590807.867
10 0 59945  63720.00000  0   -3795140.648    3675859.134   -4688942.395
10 0 59945  63900.00000  0   -4116276.533    4455825.051   -3615646.963
10 0 59945  64080.00000  0   -4269260.963    5079933.918   -2409889.050
10 0 59945  64260.00000  0   -4252687.152    5520701.796   -1115676.346
10 0 59945  64440.00000  0   -4072002.003    5757372.450     219547.811
10 0 59945  64620.00000  0   -3739163.774    5776923.407    1546684.378
10 0 59945  64800.00000  0   -3272014.488    5574755.054    2816852.716
10 0 59945  64980.00000  0   -2693390.882    5155014.748    3983269.271
10 0 59945  65160.00000  0   -2030027.745    4530538.992    5003027.833
10 0 59945  65340.00000  0   -1311319.736    3722426.644    5838709.248
10 0 59945  65520.00000  0    -568004.949    2759265.838    6459756.069
10 0 59945  65700.00000  0     169161.316    1676059.127    6843561.350
10 0 59945  65880.00000  0     870683.073     512903.509    6976250.156
10 0 59945  66060.00000  0    1509503.655    -686523.358    6853140.356
10 0 59945  66240.00000  0    2062045.982   -1876615.417    6478882.395
10 0 59945  66420.00000  0    2509081.267   -3011578.864    5867278.137
10 0 59945  66600.00000  0    2836399.940   -4047203.290    5040782.321
10 0 59945  66780.00000  0    3035261.039   -4942599.352    4029695.810
10 0 59945  66960.00000  0    3102607.461   -5661838.719    2871071.338
10 0 59945  67140.00000  0    3041036.361   -6175426.725    1607358.725
10 0 59945  67320.00000  0    2858523.073   -6461536.061     284836.031
10 0 59945  67500.00000  0    2567916.639   -6506942.550   -1048109.504
10 0 59945  67680.00000  0    2186228.532   -6307616.838   -2342789.205
10 0 59945  67860.00000  0    1733748.690   -5868934.262   -3552023.469
10 0 59945  68040.00000  0    1233037.350   -5205497.307   -4631874.260
10 0 59945  68220.00000  0     707854.229   -4340586.954   -5543221.655
10 0 59945  68400.00000  0     182077.728   -3305288.928   -6253134.707
10 0 59945  68580.00000  0    -321339.820   -2137337.400   -6735998.648
10 0 59945  68760.00000  0    -781337.101    -879728.497   -6974373.580
10 0 59945  68940.00000  0   -1179593.775     420844.422   -6959575.444
10 0 59945  69120.00000  0   -1501239.790    1715685.117   -6691971.948
10 0 59945  69300.00000  0   -1735403.733    2955869.947   -6180992.885
10 0 59945  69480.00000  0   -1875584.649    4094062.224   -5444855.129
10 0 59945  69660.00000  0   -1919835.827    5086316.603   -4509992.800
10 0 59945  69840.00000  0   -1870751.416    5893810.775   -3410188.136
10 0 59945  70020.00000  0   -1735249.455    6484428.527   -2185411.521
10 0 59945  70200.00000  0   -1524156.014    6834121.140    -880401.597
10 0 59945  70380.00000  0   -1251606.398    6927973.028     456975.138
10 0 59945  70560.00000  0    -934287.805    6760908.400    1777523.548
10 0 59945  70740.00000  0    -590560.907    6337977.519    3032606.195
99
